NORAD_CAT_ID,OBJECT_NAME,OBJECT_TYPE,EPOCH,MEAN_MOTION,ECCENTRICITY,INCLINATION,RA_OF_ASC_NODE,ARG_OF_PERICENTER,MEAN_ANOMALY,BSTAR,MEAN_MOTION_DOT,MEAN_MOTION_DDOT,TLE_LINE0,TLE_LINE1,TLE_LINE2,SEMIMAJOR_AXIS,PERIOD,APOGEE,PERIGEE,DECAYED
50207.0,STARLINK-3262,PAYLOAD,2023-10-28 21:26:46,15.08835018,0.0001488,53.216,152.3654,98.1965,261.9196,-8.2731e-05,-1.604e-05,0.0,0 STARLINK-3262,1 50207U 21125BD  23301.89359532 -.00001604  00000-0 -82731-4 0  9996,2 50207  53.2160 152.3654 0001488  98.1965 261.9196 15.08835018104477,6917.896,95.438,540.79,538.731,0.0
50207.0,STARLINK-3262,PAYLOAD,2023-10-29 06:59:05,15.08839493,0.0001493,53.2162,150.5808,94.9525,265.1637,1.893e-05,1.3e-07,0.0,0 STARLINK-3262,1 50207U 21125BD  23302.29103474  .00000013  00000-0  18930-4 0  9994,2 50207  53.2162 150.5808 0001493  94.9525 265.1637 15.08839493104536,6917.882,95.438,540.78,538.714,0.0
50207.0,STARLINK-3262,PAYLOAD,2023-10-29 21:17:33,15.08848934,0.0001365,53.2147,147.9034,92.921,267.1939,0.00031738,4.768e-05,0.0,0 STARLINK-3262,1 50207U 21125BD  23302.88719183  .00004768  00000-0  31738-3 0  9990,2 50207  53.2147 147.9034 0001365  92.9210 267.1939 15.08848934104624,6917.853,95.437,540.662,538.774,0.0
50207.0,STARLINK-3262,PAYLOAD,2023-10-30 13:11:25,15.08836105,0.0001591,53.2154,144.9307,84.492,275.6254,9.0383e-05,1.151e-05,0.0,0 STARLINK-3262,1 50207U 21125BD  23303.54959816  .00001151  00000-0  90383-4 0  9998,2 50207  53.2154 144.9307 0001591  84.4920 275.6254 15.08836105104729,6917.892,95.438,540.858,538.657,0.0
50207.0,STARLINK-3262,PAYLOAD,2023-10-30 21:08:20,15.08839461,0.0001359,53.2141,143.4426,81.8262,278.2884,0.00012182,1.651e-05,0.0,0 STARLINK-3262,1 50207U 21125BD  23303.88079726  .00001651  00000-0  12182-3 0  9993,2 50207  53.2141 143.4426 0001359  81.8262 278.2884 15.08839461104774,6917.882,95.438,540.687,538.807,0.0
50207.0,STARLINK-3262,PAYLOAD,2023-10-31 13:02:12,15.08842862,0.0001381,53.2136,140.4692,79.7358,280.379,0.00040025,6.088e-05,0.0,0 STARLINK-3262,1 50207U 21125BD  23304.54319836  .00006088  00000-0  40025-3 0  9992,2 50207  53.2136 140.4692 0001381  79.7358 280.3790 15.08842862104877,6917.872,95.437,540.692,538.781,0.0
50207.0,STARLINK-3262,PAYLOAD,2023-10-31 19:23:44,15.08847212,0.0001322,53.2138,139.2799,77.5817,282.5323,0.00058609,9.054e-05,0.0,0 STARLINK-3262,1 50207U 21125BD  23304.80815796  .00009054  00000-0  58609-3 0  9990,2 50207  53.2138 139.2799 0001322  77.5817 282.5323 15.08847212104919,6917.858,95.437,540.638,538.809,0.0
50207.0,STARLINK-3262,PAYLOAD,2023-11-01 12:52:59,15.08847915,0.0001379,53.2138,136.0085,75.4916,284.6229,0.00042563,6.494e-05,0.0,0 STARLINK-3262,1 50207U 21125BD  23305.53679853  .00006494  00000-0  42563-3 0  9990,2 50207  53.2138 136.0085 0001379  75.4916 284.6229 15.08847915105022,6917.856,95.437,540.675,538.767,0.0
50207.0,STARLINK-3262,PAYLOAD,2023-11-01 22:25:18,15.08846283,0.0001318,53.2142,134.2241,78.4372,281.6768,0.0002663,3.954e-05,0.0,0 STARLINK-3262,1 50207U 21125BD  23305.93423742  .00003954  00000-0  26630-3 0  9993,2 50207  53.2142 134.2241 0001318  78.4372 281.6768 15.08846283105081,6917.861,95.437,540.638,538.814,0.0
50207.0,STARLINK-3262,PAYLOAD,2023-11-02 19:05:18,15.08845147,0.0001354,53.2151,130.3564,87.7636,272.3512,0.00018185,2.608e-05,0.0,0 STARLINK-3262,1 50207U 21125BD  23306.79535721  .00002608  00000-0  18185-3 0  9990,2 50207  53.2151 130.3564 0001354  87.7636 272.3512 15.08845147105219,6917.865,95.437,540.666,538.793,0.0
50207.0,STARLINK-3262,PAYLOAD,2023-11-02 22:16:05,15.08844898,0.0001392,53.2152,129.7617,89.463,270.6522,0.00013935,1.931e-05,0.0,0 STARLINK-3262,1 50207U 21125BD  23306.92783685  .00001931  00000-0  13935-3 0  9995,2 50207  53.2152 129.7617 0001392  89.4630 270.6522 15.08844898105232,6917.865,95.437,540.693,538.767,0.0
50207.0,STARLINK-3262,PAYLOAD,2023-11-03 03:02:14,15.08834816,0.0001485,53.2153,128.8697,85.5266,274.5896,-1.3135e-05,-4.97e-06,0.0,0 STARLINK-3262,1 50207U 21125BD  23307.12656142 -.00000497  00000-0 -13135-4 0  9996,2 50207  53.2153 128.8697 0001485  85.5266 274.5896 15.08834816105265,6917.896,95.438,540.789,538.734,0.0
50207.0,STARLINK-3262,PAYLOAD,2023-11-03 12:34:33,15.08838656,0.0001408,53.215,127.0861,93.7835,266.3318,5.0747e-05,5.2e-06,0.0,0 STARLINK-3262,1 50207U 21125BD  23307.52400006  .00000520  00000-0  50747-4 0  9991,2 50207  53.2150 127.0861 0001408  93.7835 266.3318 15.08838656105325,6917.884,95.438,540.724,538.775,0.0
50207.0,STARLINK-3262,PAYLOAD,2023-11-03 22:06:52,15.08842341,0.0001336,53.2154,125.3027,88.1883,271.9262,9.7895e-05,1.271e-05,0.0,0 STARLINK-3262,1 50207U 21125BD  23307.92143867  .00001271  00000-0  97895-4 0  9993,2 50207  53.2154 125.3027 0001336  88.1883 271.9262 15.08842341105387,6917.873,95.437,540.662,538.814,0.0
50207.0,STARLINK-3262,PAYLOAD,2023-11-04 04:28:24,15.08840131,0.0001348,53.2155,124.1129,88.6487,271.4659,6.8988e-05,8.1e-06,0.0,0 STARLINK-3262,1 50207U 21125BD  23308.18640020  .00000810  00000-0  68988-4 0  9994,2 50207  53.2155 124.1129 0001348  88.6487 271.4659 15.08840131105421,6917.88,95.438,540.678,538.812,0.0
50207.0,STARLINK-3262,PAYLOAD,2023-11-04 12:25:20,15.08840662,0.0001311,53.2154,122.6262,87.6224,272.4918,8.8777e-05,1.125e-05,0.0,0 STARLINK-3262,1 50207U 21125BD  23308.51760019  .00001125  00000-0  88777-4 0  9990,2 50207  53.2154 122.6262 0001311  87.6224 272.4918 15.08840662105472,6917.878,95.438,540.65,538.836,0.0
50207.0,STARLINK-3262,PAYLOAD,2023-11-04 18:46:53,15.0884638,0.0001293,53.2155,121.4371,88.5706,271.5434,0.00020798,3.024e-05,0.0,0 STARLINK-3262,1 50207U 21125BD  23308.78255840  .00003024  00000-0  20798-3 0  9998,2 50207  53.2155 121.4371 0001293  88.5706 271.5434 15.08846380105516,6917.861,95.437,540.62,538.831,0.0
50207.0,STARLINK-3262,PAYLOAD,2023-11-05 10:40:44,15.08846915,0.0001282,53.2155,118.4637,89.0843,271.0296,0.00022505,3.296e-05,0.0,0 STARLINK-3262,1 50207U 21125BD  23309.44495819  .00003296  00000-0  22505-3 0  9993,2 50207  53.2155 118.4637 0001282  89.0843 271.0296 15.08846915105619,6917.859,95.437,540.611,538.837,0.0
50207.0,STARLINK-3262,PAYLOAD,2023-11-05 18:37:39,15.08850968,0.0001241,53.2154,116.9767,88.1214,271.992,0.00027404,4.077e-05,0.0,0 STARLINK-3262,1 50207U 21125BD  23309.77615533  .00004077  00000-0  27404-3 0  9997,2 50207  53.2154 116.9767 0001241  88.1214 271.9920 15.08850968105663,6917.847,95.437,540.57,538.853,0.0
50207.0,STARLINK-3262,PAYLOAD,2023-11-06 04:09:58,15.08849762,0.0001301,53.2152,115.193,88.8142,271.2999,0.00058386,9.019e-05,0.0,0 STARLINK-3262,1 50207U 21125BD  23310.17359682  .00009019  00000-0  58386-3 0  9997,2 50207  53.2152 115.1930 0001301  88.8142 271.2999 15.08849762105724,6917.851,95.437,540.616,538.816,0.0
50207.0,STARLINK-3262,PAYLOAD,2023-11-06 18:28:26,15.08858504,0.0001185,53.2147,112.5161,85.5197,274.5931,0.0002618,3.883e-05,0.0,0 STARLINK-3262,1 50207U 21125BD  23310.76974623  .00003883  00000-0  26180-3 0  9990,2 50207  53.2147 112.5161 0001185  85.5197 274.5931 15.08858504105815,6917.824,95.436,540.509,538.869,0.0
50207.0,STARLINK-3262,PAYLOAD,2023-11-07 10:22:18,15.08832231,0.0001432,53.2147,109.5422,79.5961,280.5192,-0.00016472,-2.908e-05,0.0,0 STARLINK-3262,1 50207U 21125BD  23311.43215866 -.00002908  00000-0 -16472-3 0  9994,2 50207  53.2147 109.5422 0001432  79.5961 280.5192 15.08832231105914,6917.904,95.438,540.76,538.778,0.0
50207.0,STARLINK-3262,PAYLOAD,2023-11-08 13:23:52,15.08836354,0.0001283,53.2151,104.4896,76.5696,283.544,9.2029e-05,1.177e-05,0.0,0 STARLINK-3262,1 50207U 21125BD  23312.55824563  .00001177  00000-0  92029-4 0  9996,2 50207  53.2151 104.4896 0001283  76.5696 283.5440 15.08836354106082,6917.892,95.438,540.644,538.869,0.0
50207.0,STARLINK-3262,PAYLOAD,2023-11-08 16:34:38,15.0884331,0.0001388,53.2157,103.8916,86.4285,273.6866,0.00018599,2.674e-05,0.0,0 STARLINK-3262,1 50207U 21125BD  23312.69072217  .00002674  00000-0  18599-3 0  9994,2 50207  53.2157 103.8916 0001388  86.4285 273.6866 15.08843310106109,6917.87,95.437,540.695,538.775,0.0
50207.0,STARLINK-3262,PAYLOAD,2023-11-09 10:03:53,15.08837346,0.0001622,53.2172,100.6232,81.9595,278.1581,0.00032494,4.887e-05,0.0,0 STARLINK-3262,1 50207U 21125BD  23313.41936941  .00004887  00000-0  32494-3 0  9996,2 50207  53.2172 100.6232 0001622  81.9595 278.1581 15.08837346106215,6917.889,95.438,540.876,538.631,0.0
50207.0,STARLINK-3262,PAYLOAD,2023-11-09 13:14:39,15.08838413,0.00016,53.2168,100.0279,85.5758,274.5416,0.00032179,4.837e-05,0.0,0 STARLINK-3262,1 50207U 21125BD  23313.55184884  .00004837  00000-0  32179-3 0  9997,2 50207  53.2168 100.0279 0001600  85.5758 274.5416 15.08838413106237,6917.885,95.438,540.857,538.643,0.0
50207.0,STARLINK-3262,PAYLOAD,2023-11-09 16:25:25,15.08841753,0.0001662,53.217,99.4323,87.9609,272.1573,0.00031457,4.722e-05,0.0,0 STARLINK-3262,1 50207U 21125BD  23313.68432769  .00004722  00000-0  31457-3 0  9990,2 50207  53.2170  99.4323 0001662  87.9609 272.1573 15.08841753106251,6917.875,95.437,540.89,538.59,0.0
50207.0,STARLINK-3262,PAYLOAD,2023-11-10 14:40:49,15.08842441,0.0001444,53.2153,95.2689,84.3937,275.722,9.7727e-05,1.268e-05,0.0,0 STARLINK-3262,1 50207U 21125BD  23314.61168773  .00001268  00000-0  97727-4 0  9990,2 50207  53.2153  95.2689 0001444  84.3937 275.7220 15.08842441106392,6917.873,95.437,540.737,538.739,0.0
50207.0,STARLINK-3262,PAYLOAD,2023-11-10 16:16:12,15.08845584,0.0001433,53.2154,94.9709,88.6257,271.4899,0.00014176,1.969e-05,0.0,0 STARLINK-3262,1 50207U 21125BD  23314.67792663  .00001969  00000-0  14176-3 0  9991,2 50207  53.2154  94.9709 0001433  88.6257 271.4899 15.08845584106400,6917.863,95.437,540.72,538.737,0.0
50207.0,STARLINK-3262,PAYLOAD,2023-11-11 09:45:27,15.08838579,0.0001388,53.2157,91.7001,91.0025,269.1126,3.7479e-05,3.09e-06,0.0,0 STARLINK-3262,1 50207U 21125BD  23315.40656913  .00000309  00000-0  37479-4 0  9999,2 50207  53.2157  91.7001 0001388  91.0025 269.1126 15.08838579106518,6917.885,95.438,540.71,538.79,0.0
